{"fetched_at":"2026-07-08T17:59:28.433Z","source":"https://celestrak.org/NORAD/elements/gp.php?GROUP=spire&FORMAT=JSON","constellation":"spire","records":[{"OBJECT_NAME":"LEMUR-2-HUBBLE-4","OBJECT_ID":"2025-135AP","EPOCH":"2026-07-08T05:47:18.851424","CLASSIFICATION_TYPE":"U","MEAN_MOTION":14.9367068,"ECCENTRICITY":0.0002058,"INCLINATION":97.7713,"RA_OF_ASC_NODE":302.9011,"ARG_OF_PERICENTER":181.8311,"MEAN_ANOMALY":178.2901,"EPHEMERIS_TYPE":0,"NORAD_CAT_ID":64565,"ELEMENT_SET_NO":999,"REV_AT_EPOCH":5701,"BSTAR":0.000098954,"MEAN_MOTION_DOT":0.00000989,"MEAN_MOTION_DDOT":0},{"OBJECT_NAME":"LEMUR-2-SEJONG-2","OBJECT_ID":"2025-135BL","EPOCH":"2026-07-08T13:31:38.904672","CLASSIFICATION_TYPE":"U","MEAN_MOTION":14.9688024,"ECCENTRICITY":0.0003344,"INCLINATION":97.7703,"RA_OF_ASC_NODE":304.4424,"ARG_OF_PERICENTER":248.7871,"MEAN_ANOMALY":111.2994,"EPHEMERIS_TYPE":0,"NORAD_CAT_ID":64586,"ELEMENT_SET_NO":999,"REV_AT_EPOCH":5714,"BSTAR":0.00017688,"MEAN_MOTION_DOT":0.0000197,"MEAN_MOTION_DDOT":0},{"OBJECT_NAME":"LEMUR-2-HUBBLE-5","OBJECT_ID":"2025-135BT","EPOCH":"2026-07-08T06:03:34.621056","CLASSIFICATION_TYPE":"U","MEAN_MOTION":14.94197951,"ECCENTRICITY":0.0004106,"INCLINATION":97.7733,"RA_OF_ASC_NODE":303.5739,"ARG_OF_PERICENTER":265.2628,"MEAN_ANOMALY":94.8123,"EPHEMERIS_TYPE":0,"NORAD_CAT_ID":64840,"ELEMENT_SET_NO":999,"REV_AT_EPOCH":5705,"BSTAR":0.00012514,"MEAN_MOTION_DOT":0.00001283,"MEAN_MOTION_DDOT":0},{"OBJECT_NAME":"LEMUR-2-KARENDARRELL","OBJECT_ID":"2025-135BU","EPOCH":"2026-07-08T06:15:47.705184","CLASSIFICATION_TYPE":"U","MEAN_MOTION":15.00434866,"ECCENTRICITY":0.0011757,"INCLINATION":97.7694,"RA_OF_ASC_NODE":305.439,"ARG_OF_PERICENTER":126.6368,"MEAN_ANOMALY":233.5938,"EPHEMERIS_TYPE":0,"NORAD_CAT_ID":64841,"ELEMENT_SET_NO":999,"REV_AT_EPOCH":5717,"BSTAR":0.00037135,"MEAN_MOTION_DOT":0.00004617,"MEAN_MOTION_DDOT":0},{"OBJECT_NAME":"LEMUR-2-LUCILLE-ROSE","OBJECT_ID":"2025-135BV","EPOCH":"2026-07-07T20:01:19.598304","CLASSIFICATION_TYPE":"U","MEAN_MOTION":15.00429301,"ECCENTRICITY":0.0013953,"INCLINATION":97.7715,"RA_OF_ASC_NODE":305.0478,"ARG_OF_PERICENTER":211.7605,"MEAN_ANOMALY":148.2778,"EPHEMERIS_TYPE":0,"NORAD_CAT_ID":65403,"ELEMENT_SET_NO":999,"REV_AT_EPOCH":5173,"BSTAR":0.00029371,"MEAN_MOTION_DOT":0.0000364,"MEAN_MOTION_DDOT":0},{"OBJECT_NAME":"LEMUR-2-AFFIE-WAUWIE","OBJECT_ID":"2025-248C","EPOCH":"2026-07-08T12:07:48.199008","CLASSIFICATION_TYPE":"U","MEAN_MOTION":15.28058168,"ECCENTRICITY":0.0008529,"INCLINATION":45.3917,"RA_OF_ASC_NODE":359.4149,"ARG_OF_PERICENTER":217.2941,"MEAN_ANOMALY":142.7357,"EPHEMERIS_TYPE":0,"NORAD_CAT_ID":66295,"ELEMENT_SET_NO":999,"REV_AT_EPOCH":3785,"BSTAR":0.00055604,"MEAN_MOTION_DOT":0.00015242,"MEAN_MOTION_DDOT":0},{"OBJECT_NAME":"OTTER SDM","OBJECT_ID":"2025-276N","EPOCH":"2026-07-08T10:45:50.150304","CLASSIFICATION_TYPE":"U","MEAN_MOTION":15.20002441,"ECCENTRICITY":0.0004265,"INCLINATION":97.4201,"RA_OF_ASC_NODE":262.5737,"ARG_OF_PERICENTER":286.1961,"MEAN_ANOMALY":73.8805,"EPHEMERIS_TYPE":0,"NORAD_CAT_ID":66678,"ELEMENT_SET_NO":999,"REV_AT_EPOCH":3364,"BSTAR":0.000166,"MEAN_MOTION_DOT":0.00003508,"MEAN_MOTION_DDOT":0},{"OBJECT_NAME":"LEMUR-2-STAS-GORBUK","OBJECT_ID":"2025-276W","EPOCH":"2026-07-08T11:14:10.739040","CLASSIFICATION_TYPE":"U","MEAN_MOTION":15.19612362,"ECCENTRICITY":0.0003443,"INCLINATION":97.4237,"RA_OF_ASC_NODE":262.6457,"ARG_OF_PERICENTER":282.2909,"MEAN_ANOMALY":77.794,"EPHEMERIS_TYPE":0,"NORAD_CAT_ID":66686,"ELEMENT_SET_NO":999,"REV_AT_EPOCH":3364,"BSTAR":0.00016679,"MEAN_MOTION_DOT":0.00003484,"MEAN_MOTION_DDOT":0},{"OBJECT_NAME":"LEMUR-2-TEODOR","OBJECT_ID":"2025-276DG","EPOCH":"2026-07-08T03:58:18.284160","CLASSIFICATION_TYPE":"U","MEAN_MOTION":15.21286255,"ECCENTRICITY":0.0002337,"INCLINATION":97.414,"RA_OF_ASC_NODE":262.6109,"ARG_OF_PERICENTER":95.0159,"MEAN_ANOMALY":265.1344,"EPHEMERIS_TYPE":0,"NORAD_CAT_ID":66768,"ELEMENT_SET_NO":999,"REV_AT_EPOCH":3363,"BSTAR":0.00016135,"MEAN_MOTION_DOT":0.00003538,"MEAN_MOTION_DDOT":0},{"OBJECT_NAME":"LEMUR-2-LAILA","OBJECT_ID":"2025-276DQ","EPOCH":"2026-07-08T11:09:50.032224","CLASSIFICATION_TYPE":"U","MEAN_MOTION":15.21514802,"ECCENTRICITY":0.0002901,"INCLINATION":97.4165,"RA_OF_ASC_NODE":263.0404,"ARG_OF_PERICENTER":104.4551,"MEAN_ANOMALY":255.7007,"EPHEMERIS_TYPE":0,"NORAD_CAT_ID":66776,"ELEMENT_SET_NO":999,"REV_AT_EPOCH":3368,"BSTAR":0.00016429,"MEAN_MOTION_DOT":0.00003629,"MEAN_MOTION_DDOT":0},{"OBJECT_NAME":"LEMUR-2-CELIJO-SB-PK","OBJECT_ID":"2025-276DW","EPOCH":"2026-07-08T10:45:51.672672","CLASSIFICATION_TYPE":"U","MEAN_MOTION":15.00238715,"ECCENTRICITY":0.000735,"INCLINATION":97.52,"RA_OF_ASC_NODE":259.5253,"ARG_OF_PERICENTER":80.9425,"MEAN_ANOMALY":279.263,"EPHEMERIS_TYPE":0,"NORAD_CAT_ID":66781,"ELEMENT_SET_NO":999,"REV_AT_EPOCH":2581,"BSTAR":0.00028408,"MEAN_MOTION_DOT":0.00003499,"MEAN_MOTION_DDOT":0},{"OBJECT_NAME":"LEMUR-2-FINNIAN","OBJECT_ID":"2025-276DX","EPOCH":"2026-07-07T03:40:46.056576","CLASSIFICATION_TYPE":"U","MEAN_MOTION":15.00553279,"ECCENTRICITY":0.00081236,"INCLINATION":97.5346,"RA_OF_ASC_NODE":258.5193,"ARG_OF_PERICENTER":28.2723,"MEAN_ANOMALY":331.894,"EPHEMERIS_TYPE":0,"NORAD_CAT_ID":66782,"ELEMENT_SET_NO":999,"REV_AT_EPOCH":2299,"BSTAR":0.00021742572,"MEAN_MOTION_DOT":0.00002687,"MEAN_MOTION_DDOT":0},{"OBJECT_NAME":"LEMUR-2-STARLIGHT","OBJECT_ID":"2025-276DY","EPOCH":"2026-07-08T11:05:08.990304","CLASSIFICATION_TYPE":"U","MEAN_MOTION":14.99299988,"ECCENTRICITY":0.0014769,"INCLINATION":97.5226,"RA_OF_ASC_NODE":259.3732,"ARG_OF_PERICENTER":66.9055,"MEAN_ANOMALY":293.3724,"EPHEMERIS_TYPE":0,"NORAD_CAT_ID":66783,"ELEMENT_SET_NO":999,"REV_AT_EPOCH":3338,"BSTAR":0.00032971,"MEAN_MOTION_DOT":0.00003978,"MEAN_MOTION_DDOT":0},{"OBJECT_NAME":"LEMUR-2-TARTIFLETTE","OBJECT_ID":"2025-276DZ","EPOCH":"2026-07-08T11:02:45.531744","CLASSIFICATION_TYPE":"U","MEAN_MOTION":14.99288887,"ECCENTRICITY":0.001378,"INCLINATION":97.5227,"RA_OF_ASC_NODE":259.3793,"ARG_OF_PERICENTER":74.7429,"MEAN_ANOMALY":285.5317,"EPHEMERIS_TYPE":0,"NORAD_CAT_ID":66784,"ELEMENT_SET_NO":999,"REV_AT_EPOCH":3338,"BSTAR":0.00026924,"MEAN_MOTION_DOT":0.00003236,"MEAN_MOTION_DDOT":0},{"OBJECT_NAME":"LEMUR-2-VUKASIN","OBJECT_ID":"2025-276EA","EPOCH":"2026-07-08T10:27:53.952768","CLASSIFICATION_TYPE":"U","MEAN_MOTION":15.00504973,"ECCENTRICITY":0.0004075,"INCLINATION":97.5243,"RA_OF_ASC_NODE":259.7023,"ARG_OF_PERICENTER":74.7195,"MEAN_ANOMALY":285.4479,"EPHEMERIS_TYPE":0,"NORAD_CAT_ID":66785,"ELEMENT_SET_NO":999,"REV_AT_EPOCH":3333,"BSTAR":0.00024127,"MEAN_MOTION_DOT":0.00002983,"MEAN_MOTION_DDOT":0},{"OBJECT_NAME":"LEMUR-2-HOTSPUR-TOM","OBJECT_ID":"2025-276EB","EPOCH":"2026-07-08T10:54:04.904352","CLASSIFICATION_TYPE":"U","MEAN_MOTION":14.99196768,"ECCENTRICITY":0.0013923,"INCLINATION":97.5218,"RA_OF_ASC_NODE":259.3502,"ARG_OF_PERICENTER":65.885,"MEAN_ANOMALY":294.3828,"EPHEMERIS_TYPE":0,"NORAD_CAT_ID":66786,"ELEMENT_SET_NO":999,"REV_AT_EPOCH":3331,"BSTAR":0.00029126,"MEAN_MOTION_DOT":0.00003497,"MEAN_MOTION_DDOT":0}]}
