LEMUR-2-HUBBLE-4        
1 64565U 25135AP  26189.24119041  .00000989  00000+0  98954-4 0  9994
2 64565  97.7713 302.9011 0002058 181.8311 178.2901 14.93670680 57011
LEMUR-2-SEJONG-2        
1 64586U 25135BL  26189.56364473  .00001970  00000+0  17688-3 0  9998
2 64586  97.7703 304.4424 0003344 248.7871 111.2994 14.96880240 57142
LEMUR-2-HUBBLE-5        
1 64840U 25135BT  26189.25248404  .00001283  00000+0  12514-3 0  9992
2 64840  97.7733 303.5739 0004106 265.2628  94.8123 14.94197951 57056
LEMUR-2-KARENDARRELL    
1 64841U 25135BU  26189.26096881  .00004617  00000+0  37135-3 0  9994
2 64841  97.7694 305.4390 0011757 126.6368 233.5938 15.00434866 57174
LEMUR-2-LUCILLE-ROSE    
1 65403U 25135BV  26188.83425461  .00003640  00000+0  29371-3 0  9999
2 65403  97.7715 305.0478 0013953 211.7605 148.2778 15.00429301 51734
LEMUR-2-AFFIE-WAUWIE    
1 66295U 25248C   26189.50541897  .00015242  00000+0  55604-3 0  9990
2 66295  45.3917 359.4149 0008529 217.2941 142.7357 15.28058168 37850
OTTER SDM               
1 66678U 25276N   26189.44849711  .00003508  00000+0  16600-3 0  9990
2 66678  97.4201 262.5737 0004265 286.1961  73.8805 15.20002441 33646
LEMUR-2-STAS-GORBUK     
1 66686U 25276W   26189.46817985  .00003484  00000+0  16679-3 0  9998
2 66686  97.4237 262.6457 0003443 282.2909  77.7940 15.19612362 33640
LEMUR-2-TEODOR          
1 66768U 25276DG  26189.16548940  .00003538  00000+0  16135-3 0  9995
2 66768  97.4140 262.6109 0002337  95.0159 265.1344 15.21286255 33637
LEMUR-2-LAILA           
1 66776U 25276DQ  26189.46516241  .00003629  00000+0  16429-3 0  9993
2 66776  97.4165 263.0404 0002901 104.4551 255.7007 15.21514802 33682
LEMUR-2-CELIJO-SB-PK    
1 66781U 25276DW  26189.44851473  .00003499  00000+0  28408-3 0  9991
2 66781  97.5200 259.5253 0007350  80.9425 279.2630 15.00238715 25814
LEMUR-2-FINNIAN         
1 66782U 25276DX  26188.15331084  .00002687  00000+0  21743-3 0  9993
2 66782  97.5346 258.5193 0008123  28.2723 331.8940 15.00553279 22993
LEMUR-2-STARLIGHT       
1 66783U 25276DY  26189.46190961  .00003978  00000+0  32971-3 0  9995
2 66783  97.5226 259.3732 0014769  66.9055 293.3724 14.99299988 33387
LEMUR-2-TARTIFLETTE     
1 66784U 25276DZ  26189.46024921  .00003236  00000+0  26924-3 0  9996
2 66784  97.5227 259.3793 0013780  74.7429 285.5317 14.99288887 33387
LEMUR-2-VUKASIN         
1 66785U 25276EA  26189.43604112  .00002983  00000+0  24127-3 0  9991
2 66785  97.5243 259.7023 0004075  74.7195 285.4479 15.00504973 33336
LEMUR-2-HOTSPUR-TOM     
1 66786U 25276EB  26189.45422343  .00003497  00000+0  29126-3 0  9993
2 66786  97.5218 259.3502 0013923  65.8850 294.3828 14.99196768 33319
